NORAD_CAT_ID,OBJECT_NAME,OBJECT_TYPE,EPOCH,MEAN_MOTION,ECCENTRICITY,INCLINATION,RA_OF_ASC_NODE,ARG_OF_PERICENTER,MEAN_ANOMALY,BSTAR,MEAN_MOTION_DOT,MEAN_MOTION_DDOT,TLE_LINE0,TLE_LINE1,TLE_LINE2,SEMIMAJOR_AXIS,PERIOD,APOGEE,PERIGEE,DECAYED
50850.0,STARLINK-3312,PAYLOAD,2022-10-18 04:21:41,15.08837697,0.0002279999999999,53.2185,298.9945,39.2741,320.8416,7.239e-05,8.64e-06,0.0,0 STARLINK-3312,1 50850U 22001AZ  22291.18173454  .00000864  00000-0  72390-4 0  9995,2 50850  53.2185 298.9945 0002280  39.2741 320.8416 15.08837697 45139,6917.887,95.438,541.33,538.175,0.0
50850.0,STARLINK-3312,PAYLOAD,2022-10-18 07:32:28,15.08836671,0.0002261,53.2186,298.3997,39.2301,320.8855,5.5407e-05,5.94e-06,0.0,0 STARLINK-3312,1 50850U 22001AZ  22291.31421598  .00000594  00000-0  55407-4 0  9995,2 50850  53.2186 298.3997 0002261  39.2301 320.8855 15.08836671 44410,6917.891,95.438,541.32,538.191,0.0
50850.0,STARLINK-3312,PAYLOAD,2022-10-18 17:04:47,15.08828787,0.0002369,53.2185,296.6159,36.475,323.6403,2.5117e-05,1.11e-06,0.0,0 STARLINK-3312,1 50850U 22001AZ  22291.71166386  .00000111  00000-0  25117-4 0  9990,2 50850  53.2185 296.6159 0002369  36.4750 323.6403 15.08828787 44471,6917.915,95.438,541.419,538.141,0.0
50850.0,STARLINK-3312,PAYLOAD,2022-10-19 08:58:39,15.08829578,0.0002143,53.2179,293.642,40.1163,319.9987,-4.1798e-05,-9.53e-06,0.0,0 STARLINK-3312,1 50850U 22001AZ  22292.37406870 -.00000953  00000-0 -41798-4 0  9997,2 50850  53.2179 293.6420 0002143  40.1163 319.9987 15.08829578 44577,6917.9119999999975,95.438,541.26,538.295,0.0
50850.0,STARLINK-3312,PAYLOAD,2022-10-20 05:38:38,15.08906792,0.0002431,53.2179,289.7761,30.8135,329.2999,-0.00077883,-0.00012685,0.0,0 STARLINK-3312,1 50850U 22001AZ  22293.23516891 -.00012685  00000-0 -77883-3 0  9996,2 50850  53.2179 289.7761 0002431  30.8135 329.2999 15.08906792 45444,6917.676,95.433,541.2230000000002,537.86,0.0
50850.0,STARLINK-3312,PAYLOAD,2022-10-20 08:49:26,15.08821687,0.0002331999999999,53.2179,289.1817,46.4482,313.6704,0.00037522,5.686e-05,0.0,0 STARLINK-3312,1 50850U 22001AZ  22293.36766508  .00005686  00000-0  37522-3 0  9999,2 50850  53.2179 289.1817 0002332  46.4482 313.6704 15.08821687 44728,6917.936,95.439,541.415,538.188,0.0
50850.0,STARLINK-3312,PAYLOAD,2022-10-20 16:46:21,15.08840516,0.0002429,53.2182,287.6951,39.7187,320.3983,9.3693e-05,1.203e-05,0.0,0 STARLINK-3312,1 50850U 22001AZ  22293.69886095  .00001203  00000-0  93693-4 0  9992,2 50850  53.2182 287.6951 0002429  39.7187 320.3983 15.08840516 44779,6917.879,95.438,541.424,538.063,0.0
50850.0,STARLINK-3312,PAYLOAD,2022-10-21 07:04:50,15.08836034,0.0002475,53.2188,285.0201,41.3796,318.7383,0.00010961,1.456e-05,0.0,0 STARLINK-3312,1 50850U 22001AZ  22294.29502423  .00001456  00000-0  10961-3 0  9995,2 50850  53.2188 285.0201 0002475  41.3796 318.7383 15.08836034 44866,6917.893,95.438,541.47,538.045,0.0
50850.0,STARLINK-3312,PAYLOAD,2022-10-21 16:37:08,15.08844345,0.0002573,53.2186,283.235,41.3334,318.7853,0.00010795,1.4300000000000004e-05,0.0,0 STARLINK-3312,1 50850U 22001AZ  22294.69245873  .00001430  00000-0  10795-3 0  9999,2 50850  53.2186 283.2350 0002573  41.3334 318.7853 15.08844345 44929,6917.8669999999975,95.437,541.512,537.952,0.0
50850.0,STARLINK-3312,PAYLOAD,2022-10-22 05:20:13,15.08843062,0.0002575,53.2185,280.8567,42.6291,317.4901,-3.4041e-06,-3.43e-06,0.0,0 STARLINK-3312,1 50850U 22001AZ  22295.22238221 -.00000343  00000-0 -34041-5 0  9994,2 50850  53.2185 280.8567 0002575  42.6291 317.4901 15.08843062 45745,6917.871,95.437,541.5169999999998,537.955,0.0
50850.0,STARLINK-3312,PAYLOAD,2022-10-22 06:55:37,15.08841785,0.0002501,53.2189,280.5598,41.9685,318.1499,-1.1396e-05,-4.7e-06,0.0,0 STARLINK-3312,1 50850U 22001AZ  22295.28862276 -.00000470  00000-0 -11396-4 0  9991,2 50850  53.2189 280.5598 0002501  41.9685 318.1499 15.08841785 45018,6917.875,95.437,541.47,538.01,0.0
50850.0,STARLINK-3312,PAYLOAD,2022-10-22 16:27:56,15.088335699999998,0.000262,53.2187,278.776,41.7632,318.356,-5.2123e-05,-1.118e-05,0.0,0 STARLINK-3312,1 50850U 22001AZ  22295.68606978 -.00001118  00000-0 -52123-4 0  9993,2 50850  53.2187 278.7760 0002620  41.7632 318.3560 15.08833570 45078,6917.9,95.438,541.578,537.953,0.0
50850.0,STARLINK-3312,PAYLOAD,2022-10-23 05:11:00,15.08848141,0.0002431,53.2184,276.4018,40.8865,319.2309,1.34e-05,-7.5e-07,0.0,0 STARLINK-3312,1 50850U 22001AZ  22296.21597782 -.00000075  00000-0  13400-4 0  9990,2 50850  53.2184 276.4018 0002431  40.8865 319.2309 15.08848141 45895,6917.856,95.437,541.4019999999998,538.039,0.0
50850.0,STARLINK-3312,PAYLOAD,2022-10-23 16:18:41,15.0885679,0.0002586,53.2186,274.3155,40.9688,319.1498,8.1277e-05,1.006e-05,0.0,0 STARLINK-3312,1 50850U 22001AZ  22296.67964595  .00001006  00000-0  81277-4 0  9991,2 50850  53.2186 274.3155 0002586  40.9688 319.1498 15.08856790 45225,6917.829000000002,95.436,541.4830000000002,537.905,0.0
50850.0,STARLINK-3312,PAYLOAD,2022-10-24 05:01:46,15.08849263,0.0002487,53.2184,271.936,42.3272,317.7912,9.2306e-05,1.181e-05,0.0,0 STARLINK-3312,1 50850U 22001AZ  22297.20956645  .00001181  00000-0  92306-4 0  9997,2 50850  53.2184 271.9360 0002487  42.3272 317.7912 15.08849263 46042,6917.852,95.437,541.438,537.997,0.0
50850.0,STARLINK-3312,PAYLOAD,2022-10-24 08:12:33,15.08834757,0.000239,53.2192,271.3403,42.6713,317.4465,-4.7088e-05,-1.038e-05,0.0,0 STARLINK-3312,1 50850U 22001AZ  22297.34205980 -.00001038  00000-0 -47088-4 0  9991,2 50850  53.2192 271.3403 0002390  42.6713 317.4465 15.08834757 46063,6917.896,95.438,541.415,538.1080000000002,0.0
50850.0,STARLINK-3312,PAYLOAD,2022-10-25 08:03:21,15.08833446,0.0001859,53.2187,266.8789,47.6597,312.4552,-0.00010357,-1.936e-05,0.0,0 STARLINK-3312,1 50850U 22001AZ  22298.33566960 -.00001936  00000-0 -10357-3 0  9994,2 50850  53.2187 266.8789 0001859  47.6597 312.4552 15.08833446 45477,6917.9,95.438,541.0509999999998,538.479,0.0
50850.0,STARLINK-3312,PAYLOAD,2022-10-26 04:43:22,15.08831641,0.0002261,53.2188,263.0149,38.7603,321.3551,-4.629600000000001e-05,-1.025e-05,0.0,0 STARLINK-3312,1 50850U 22001AZ  22299.19679044 -.00001025  00000-0 -46296-4 0  9998,2 50850  53.2188 263.0149 0002261  38.7603 321.3551 15.08831641 46344,6917.906,95.438,541.335,538.207,0.0
50850.0,STARLINK-3312,PAYLOAD,2022-10-26 07:54:08,15.08833801,0.0002217,53.2188,262.4202,41.8381,318.2781,-7.2641e-05,-1.444e-05,0.0,0 STARLINK-3312,1 50850U 22001AZ  22299.32927063 -.00001444  00000-0 -72641-4 0  9998,2 50850  53.2188 262.4202 0002217  41.8381 318.2781 15.08833801 45626,6917.899,95.438,541.298,538.231,0.0
50850.0,STARLINK-3312,PAYLOAD,2022-10-27 04:34:09,15.08835116,0.0002086999999999,53.219,258.553,55.8981,304.2209,0.00013649,1.884e-05,0.0,0 STARLINK-3312,1 50850U 22001AZ  22300.19038832  .00001884  00000-0  13649-3 0  9991,2 50850  53.2190 258.5530 0002087  55.8981 304.2209 15.08835116 46492,6917.895,95.438,541.2040000000002,538.317,0.0
50850.0,STARLINK-3312,PAYLOAD,2022-10-27 06:09:33,15.08831524,0.0002153,53.2188,258.2577,38.2011,321.9134,5.7878e-05,6.33e-06,0.0,0 STARLINK-3312,1 50850U 22001AZ  22300.25663464  .00000633  00000-0  57878-4 0  9997,2 50850  53.2188 258.2577 0002153  38.2011 321.9134 15.08831524 46504,6917.906,95.438,541.261,538.2819999999998,0.0
50850.0,STARLINK-3312,PAYLOAD,2022-10-27 14:06:28,15.08837559,0.0002320999999999,53.2186,256.7712,36.3199,323.795,6.3939e-05,7.29e-06,0.0,0 STARLINK-3312,1 50850U 22001AZ  22300.58783063  .00000729  00000-0  63939-4 0  9992,2 50850  53.2186 256.7712 0002321  36.3199 323.7950 15.08837559 45812,6917.888000000001,95.438,541.3580000000002,538.1469999999998,0.0
50850.0,STARLINK-3312,PAYLOAD,2022-10-28 04:24:55,15.08844608,0.0002283,53.2185,254.0937,35.9202,324.1944,0.0001506,2.11e-05,0.0,0 STARLINK-3312,1 50850U 22001AZ  22301.18398146  .00002110  00000-0  15060-3 0  9990,2 50850  53.2185 254.0937 0002283  35.9202 324.1944 15.08844608 45909,6917.866,95.437,541.311,538.1519999999998,0.0
50850.0,STARLINK-3312,PAYLOAD,2022-10-28 15:32:38,15.08844086,0.0002278999999999,53.2183,252.0128,36.8928,323.222,0.00010237,1.341e-05,0.0,0 STARLINK-3312,1 50850U 22001AZ  22301.64766277  .00001341  00000-0  10237-3 0  9991,2 50850  53.2183 252.0128 0002279  36.8928 323.2220 15.08844086 45971,6917.868,95.437,541.309,538.156,0.0
50850.0,STARLINK-3312,PAYLOAD,2022-10-29 04:15:42,15.08850068,0.000229,53.2184,249.6347,39.7378,320.3782,2.8261e-05,1.62e-06,0.0,0 STARLINK-3312,1 50850U 22001AZ  22302.17757920  .00000162  00000-0  28261-4 0  9992,2 50850  53.2184 249.6347 0002290  39.7378 320.3782 15.08850068 46059,6917.85,95.437,541.299,538.13,0.0
50850.0,STARLINK-3312,PAYLOAD,2022-10-29 20:09:33,15.0885052,0.0002289,53.2182,246.6612,39.5606,320.5553,-4.881499999999999e-07,-2.96e-06,0.0,0 STARLINK-3312,1 50850U 22001AZ  22302.83997679 -.00000296  00000-0 -48815-6 0  9991,2 50850  53.2182 246.6612 0002289  39.5606 320.5553 15.08850520 46151,6917.848000000001,95.437,541.297,538.13,0.0
50850.0,STARLINK-3312,PAYLOAD,2022-10-30 05:41:54,15.08830713,0.0002174,53.2183,244.8775,38.6891,321.4257,-0.00013925,-2.503e-05,0.0,0 STARLINK-3312,1 50850U 22001AZ  22303.23743282 -.00002503  00000-0 -13925-3 0  9999,2 50850  53.2183 244.8775 0002174  38.6891 321.4257 15.08830713 46211,6917.909000000002,95.438,541.278,538.27,0.0
50850.0,STARLINK-3312,PAYLOAD,2022-10-31 05:32:40,15.08839518,0.0002229,53.2185,240.416,40.1345,319.9811,2.8476e-07,-2.84e-06,0.0,0 STARLINK-3312,1 50850U 22001AZ  22304.23102631 -.00000284  00000-0  28476-6 0  9990,2 50850  53.2185 240.4160 0002229  40.1345 319.9811 15.08839518 46362,6917.882,95.438,541.289,538.205,0.0
50850.0,STARLINK-3312,PAYLOAD,2022-10-31 15:04:59,15.088385699999998,0.0002207,53.2184,238.632,39.8706,320.2448,1.0814e-05,-1.16e-06,0.0,0 STARLINK-3312,1 50850U 22001AZ  22304.62846742 -.00000116  00000-0  10814-4 0  9990,2 50850  53.2184 238.6320 0002207  39.8706 320.2448 15.08838570 47167,6917.885,95.438,541.2769999999998,538.2230000000002,0.0
